PROBA-1                 
1 26958U 01049B   26166.27811440  .00002243  00000+0  14716-3 0  9994
2 26958  97.9597 174.7439 0056341 128.1647 232.4675 15.07490680343336
CUTE-1 (CO-55)          
1 27844U 03031E   26166.28097488  .00000237  00000+0  12153-3 0  9995
2 27844  98.6736 174.8638 0009408 183.5236 176.5879 14.24334631191401
CUBESAT XI-IV (CO-57)   
1 27848U 03031J   26165.98734313  .00000202  00000+0  10800-3 0  9999
2 27848  98.6767 174.2883 0008884 203.7736 156.3033 14.23619747191065
APRIZESAT 4             
1 35684U 09041D   26166.16666432  .00000554  00000+0  72785-4 0  9991
2 35684  98.1413 241.4469 0042527 329.7444  30.1314 14.83876881911060
APRIZESAT 3             
1 35686U 09041F   26166.15959498  .00001447  00000+0  12913-3 0  9997
2 35686  98.2056 319.2863 0062761  74.2807 286.5324 14.96235077916079
PROBA-2                 
1 36037U 09059B   26166.10843066  .00000156  00000+0  46948-4 0  9997
2 36037  98.2449 349.4900 0012005 289.2478  70.7420 14.54861646881220
APRIZESAT 5             
1 37792U 11044E   26166.04803086  .00001005  00000+0  13401-3 0  9995
2 37792  98.2454  99.0278 0052519  11.1968 349.0398 14.81071954798476
APRIZESAT 6             
1 37793U 11044F   26166.32828894  .00000650  00000+0  98786-4 0  9996
2 37793  98.2366  76.7899 0044489  91.8000  26.4080 14.76913279796874
PROBA-V                 
1 39159U 13021A   26166.22146685  .00000050  00000+0  39774-4 0  9997
2 39159  98.3583 144.9251 0005063 127.9948 232.1690 14.23596587680833
APRIZESAT 7             
1 39416U 13066A   26166.14139459  .00001056  00000+0  10988-3 0  9996
2 39416  97.7709 119.3907 0034835 216.1827 143.7035 14.91560106680925
APRIZESAT 8             
1 39425U 13066K   26166.12361099  .00000858  00000+0  98931-4 0  9995
2 39425  97.8221 113.6202 0044494 293.5945  66.0602 14.87649416679362
BUGSAT-1 (TITA)         
1 40014U 14033E   26166.25360803  .00006191  00000+0  32709-3 0  9998
2 40014  98.0437 258.6882 0027808 185.0924 175.0028 15.15570782655544
SAUDISAT 4              
1 40016U 14033G   26166.29285782  .00000571  00000+0  81807-4 0  9996
2 40016  97.7579 312.4930 0046202  79.9727 280.6694 14.79542392645796
APRIZESAT 9             
1 40018U 14033J   26165.89987428  .00000604  00000+0  96124-4 0  9994
2 40018  97.9058 299.1544 0065517 206.5782 153.2063 14.74211755643225
APRIZESAT 10            
1 40019U 14033K   26166.28991172  .00000342  00000+0  61835-4 0  9990
2 40019  97.9647 293.2916 0077407 280.0162  79.2317 14.70880854641975
TECHDEMOSAT-1 (TDS-1)   
1 40076U 14037H   26165.97646716  .00007388  00000+0  41956-3 0  9991
2 40076  98.3810 157.9704 0004489 276.1177  83.9540 15.13266148647897
TECHNOSAT               
1 42829U 17042E   26166.32108623  .00003553  00000+0  25397-3 0  9999
2 42829  97.4276 324.0495 0018840 100.1181 260.2172 15.04948960486422
FLYING LAPTOP           
1 42831U 17042G   26166.31910302  .00003152  00000+0  24959-3 0  9994
2 42831  97.4674 321.9235 0019545 127.8462 232.4535 15.01134999486178
HAWK-A                  
1 43765U 18099H   26166.11663766  .00005767  00000+0  23312-3 0  9997
2 43765  97.3916 218.3794 0033162 293.5912  66.1844 15.24622996412789
HAWK-B                  
1 43794U 18099AN  26166.13571100  .00005376  00000+0  23007-3 0  9998
2 43794  97.3964 217.8176 0030613 312.4919  47.3731 15.22807516412729
HAWK-C                  
1 43799U 18099AT  26166.09786313  .00007207  00000+0  26019-3 0  9993
2 43799  97.3893 219.2628 0038811 293.5256  66.1908 15.28078828413597
SALSAT                  
1 46495U 20068K   26165.98698011  .00006897  00000+0  24187-3 0  9990
2 46495  97.8843 168.9176 0008203 317.5916  42.4688 15.29772719315025
HAWK-2C                 
1 47502U 21006CT  26166.06575079  .00006037  00000+0  18208-3 0  9994
2 47502  97.2277 210.4177 0006467 193.0562 167.0515 15.34641584299179
HAWK-2A                 
1 47505U 21006CW  26166.06826388  .00006070  00000+0  18298-3 0  9995
2 47505  97.2321 211.0969 0005865 196.3832 163.7222 15.34656544299175
HAWK-2B                 
1 47508U 21006CZ  26166.06391906  .00007117  00000+0  21352-3 0  9999
2 47508  97.2190 209.4277 0006450 194.6333 165.4725 15.34742438299178
HAWK-3B                 
1 48931U 21059BE  26166.09275396  .00040886  00000+0  34909-3 0  9997
2 48931  97.6652   2.6028 0003365 342.5298  17.5847 15.69405371277526
HAWK-3C                 
1 48948U 21059BX  26166.09243184  .00040215  00000+0  34337-3 0  9996
2 48948  97.6773   8.2853 0003678 343.4664  16.6476 15.69406921277520
HAWK-3A                 
1 48957U 21059CG  26166.09231718  .00041370  00000+0  35304-3 0  9994
2 48957  97.6716   5.4917 0003771 345.4775  14.6377 15.69413390277522
HAWK-5C                 
1 52754U 22057Y   26166.23807060  .00016127  00000+0  27596-3 0  9994
2 52754  97.6590 325.7790 0005138  89.0290 271.1550 15.51332345226046
HAWK-5B                 
1 52756U 22057AA  26166.17341804  .00016142  00000+0  27620-3 0  9993
2 52756  97.6599 324.0593 0005792  82.1799 278.0110 15.51330943226033
