OBJECT_NAME,OBJECT_ID,EPOCH,MEAN_MOTION,ECCENTRICITY,INCLINATION,RA_OF_ASC_NODE,ARG_OF_PERICENTER,MEAN_ANOMALY,EPHEMERIS_TYPE,CLASSIFICATION_TYPE,NORAD_CAT_ID,ELEMENT_SET_NO,REV_AT_EPOCH,BSTAR,MEAN_MOTION_DOT,MEAN_MOTION_DDOT
PROBA-1,2001-049B,2026-06-15T06:40:29.084160,15.07490680,.00563413,97.9597,174.7439,128.1647,232.4675,0,U,26958,999,34333,.1471614E-3,.2243E-4,0
CUTE-1 (CO-55),2003-031E,2026-06-15T06:44:36.229632,14.24334631,.00094081,98.6736,174.8638,183.5236,176.5879,0,U,27844,999,19140,.12153452E-3,.237E-5,0
CUBESAT XI-IV (CO-57),2003-031J,2026-06-14T23:41:46.446432,14.23619747,.00088841,98.6767,174.2883,203.7736,156.3033,0,U,27848,999,19106,.10799657E-3,.202E-5,0
APRIZESAT 4,2009-041D,2026-06-15T03:59:59.797248,14.83876881,.00425278,98.1413,241.4469,329.7444,30.1314,0,U,35684,999,91106,.72784815E-4,.554E-5,0
APRIZESAT 3,2009-041F,2026-06-15T03:49:49.006272,14.96235077,.0062761,98.2056,319.2863,74.2807,286.5324,0,U,35686,999,91607,.12913251E-3,.1447E-4,0
PROBA-2,2009-059B,2026-06-15T02:36:08.409024,14.54861646,.00120057,98.2449,349.4900,289.2478,70.7420,0,U,36037,999,88122,.46948301E-4,.156E-5,0
APRIZESAT 5,2011-044E,2026-06-15T01:09:09.866304,14.81071954,.00525191,98.2454,99.0278,11.1968,349.0398,0,U,37792,999,79847,.13400632E-3,.1005E-4,0
APRIZESAT 6,2011-044F,2026-06-15T07:52:44.164416,14.76913279,.00444899,98.2366,76.7899,91.8000,26.4080,0,U,37793,999,79687,.98786275E-4,.65E-5,0
PROBA-V,2013-021A,2026-06-15T05:18:54.735840,14.23596587,.00050636,98.3583,144.9251,127.9948,232.1690,0,U,39159,999,68083,.3977427E-4,.5E-6,0
APRIZESAT 7,2013-066A,2026-06-15T03:23:36.492576,14.91560106,.00348357,97.7709,119.3907,216.1827,143.7035,0,U,39416,999,68092,.10988472E-3,.1056E-4,0
APRIZESAT 8,2013-066K,2026-06-15T02:57:59.989536,14.87649416,.00444949,97.8221,113.6202,293.5945,66.0602,0,U,39425,999,67936,.98930811E-4,.858E-5,0
BUGSAT-1 (TITA),2014-033E,2026-06-15T06:05:11.733792,15.15570782,.00278088,98.0437,258.6882,185.0924,175.0028,0,U,40014,999,65554,.32709032E-3,.6191E-4,0
SAUDISAT 4,2014-033G,2026-06-15T07:01:42.915648,14.79542392,.00462022,97.7579,312.4930,79.9727,280.6694,0,U,40016,999,64579,.81806669E-4,.571E-5,0
APRIZESAT 9,2014-033J,2026-06-14T21:35:49.137792,14.74211755,.0065517,97.9058,299.1544,206.5782,153.2063,0,U,40018,999,64322,.96124E-4,.604E-5,0
APRIZESAT 10,2014-033K,2026-06-15T06:57:28.372608,14.70880854,.0077407,97.9647,293.2916,280.0162,79.2317,0,U,40019,999,64197,.61835035E-4,.342E-5,0
TECHDEMOSAT-1 (TDS-1),2014-037H,2026-06-14T23:26:06.762624,15.13266148,.00044895,98.3810,157.9704,276.1177,83.9540,0,U,40076,999,64789,.41955707E-3,.7388E-4,0
TECHNOSAT,2017-042E,2026-06-15T07:42:21.850272,15.04948960,.00188402,97.4276,324.0495,100.1181,260.2172,0,U,42829,999,48642,.25397429E-3,.3553E-4,0
FLYING LAPTOP,2017-042G,2026-06-15T07:39:30.500928,15.01134999,.00195455,97.4674,321.9235,127.8462,232.4535,0,U,42831,999,48617,.24959243E-3,.3152E-4,0
HAWK-A,2018-099H,2026-06-15T02:47:57.493824,15.24622996,.00331623,97.3916,218.3794,293.5912,66.1844,0,U,43765,999,41278,.23311739E-3,.5767E-4,0
HAWK-B,2018-099AN,2026-06-15T03:15:25.430400,15.22807516,.00306133,97.3964,217.8176,312.4919,47.3731,0,U,43794,999,41272,.23007104E-3,.5376E-4,0
HAWK-C,2018-099AT,2026-06-15T02:20:55.374432,15.28078828,.00388114,97.3893,219.2628,293.5256,66.1908,0,U,43799,999,41359,.26018675E-3,.7207E-4,0
SALSAT,2020-068K,2026-06-14T23:41:15.081504,15.29772719,.0008203,97.8843,168.9176,317.5916,42.4688,0,U,46495,999,31502,.24186561E-3,.6897E-4,0
HAWK-2C,2021-006CT,2026-06-15T01:34:40.868256,15.34641584,.0006467,97.2277,210.4177,193.0562,167.0515,0,U,47502,999,29917,.18207576E-3,.6037E-4,0
HAWK-2A,2021-006CW,2026-06-15T01:38:17.999232,15.34656544,.0005865,97.2321,211.0969,196.3832,163.7222,0,U,47505,999,29917,.18297707E-3,.607E-4,0
HAWK-2B,2021-006CZ,2026-06-15T01:32:02.606784,15.34742438,.00064501,97.2190,209.4277,194.6333,165.4725,0,U,47508,999,29917,.21351972E-3,.7117E-4,0
HAWK-3B,2021-059BE,2026-06-15T02:13:33.942144,15.69405371,.00033658,97.6652,2.6028,342.5298,17.5847,0,U,48931,999,27752,.34908898E-3,.40886E-3,0
HAWK-3C,2021-059BX,2026-06-15T02:13:06.110976,15.69406921,.00036784,97.6773,8.2853,343.4664,16.6476,0,U,48948,999,27752,.34336692E-3,.40215E-3,0
HAWK-3A,2021-059CG,2026-06-15T02:12:56.204352,15.69413390,.00037716,97.6716,5.4917,345.4775,14.6377,0,U,48957,999,27752,.35304427E-3,.4137E-3,0
HAWK-5C,2022-057Y,2026-06-15T05:42:49.299840,15.51332345,.00051383,97.6590,325.7790,89.0290,271.1550,0,U,52754,999,22604,.27595845E-3,.16127E-3,0
HAWK-5B,2022-057AA,2026-06-15T04:09:43.318656,15.51330943,.00057921,97.6599,324.0593,82.1799,278.0110,0,U,52756,999,22603,.27619765E-3,.16142E-3,0
